{
  "type": "FeatureCollection",
  "features": [
    {
      "type": "Feature",
      "properties": {
        "norad_id": 34079,
        "name": "IRIDIUM 33 DEB",
        "group": "iridium-33-debris",
        "lat": -2.947677422562871,
        "lon": 10.029953946759246,
        "alt_km": 618.1506893294018,
        "timestamp": "2025-12-09T07:41:33.595549+00:00",
        "meta_object_name": "IRIDIUM 33 DEB",
        "meta_object_id": "1997-051CN",
        "meta_epoch": "2025-12-08T14:27:48.844224",
        "meta_mean_motion": 14.83361696,
        "meta_eccentricity": 0.0006131,
        "meta_inclination": 86.3772,
        "meta_ra_of_asc_node": 10.5432,
        "meta_arg_of_pericenter": 20.96,
        "meta_mean_anomaly": 105.1892,
        "meta_ephemeris_type": 0,
        "meta_classification_type": "U",
        "meta_norad_cat_id": 34079,
        "meta_element_set_no": 999,
        "meta_rev_at_epoch": 88916,
        "meta_bstar": 0.0020759,
        "meta_mean_motion_dot": 0.00017066,
        "meta_mean_motion_ddot": 0,
        "tle_line1": "1 34079U 97051CN  25342.60264866  .00017066  00000+0  20759-2 0  9993",
        "tle_line2": "2 34079  86.3772  10.5432 0006131  20.9600 105.1892 14.83361696889166"
      },
      "geometry": {
        "type": "Point",
        "coordinates": [
          10.029953946759246,
          -2.947677422562871
        ]
      }
    },
    {
      "type": "Feature",
      "properties": {
        "norad_id": 34088,
        "name": "IRIDIUM 33 DEB",
        "group": "iridium-33-debris",
        "lat": -7.430026202329971,
        "lon": 31.822277734063295,
        "alt_km": 602.1179006721704,
        "timestamp": "2025-12-09T07:41:33.595561+00:00",
        "meta_object_name": "IRIDIUM 33 DEB",
        "meta_object_id": "1997-051CX",
        "meta_epoch": "2025-12-08T16:09:48.162240",
        "meta_mean_motion": 14.91078916,
        "meta_eccentricity": 0.00054174,
        "meta_inclination": 86.3847,
        "meta_ra_of_asc_node": 32.5918,
        "meta_arg_of_pericenter": 191.4712,
        "meta_mean_anomaly": 290.1472,
        "meta_ephemeris_type": 0,
        "meta_classification_type": "U",
        "meta_norad_cat_id": 34088,
        "meta_element_set_no": 999,
        "meta_rev_at_epoch": 88681,
        "meta_bstar": 0.0030216881,
        "meta_mean_motion_dot": 0.00030047,
        "meta_mean_motion_ddot": 0,
        "tle_line1": "1 34088U 97051CX  25342.67347410  .00030047  00000+0  30217-2 0  9991",
        "tle_line2": "2 34088  86.3847  32.5918 0005417 191.4712 290.1472 14.91078916886813"
      },
      "geometry": {
        "type": "Point",
        "coordinates": [
          31.822277734063295,
          -7.430026202329971
        ]
      }
    },
    {
      "type": "Feature",
      "properties": {
        "norad_id": 34091,
        "name": "IRIDIUM 33 DEB",
        "group": "iridium-33-debris",
        "lat": -63.25638809520642,
        "lon": 61.10491405814175,
        "alt_km": 609.2534395777993,
        "timestamp": "2025-12-09T07:41:33.595571+00:00",
        "meta_object_name": "IRIDIUM 33 DEB",
        "meta_object_id": "1997-051DA",
        "meta_epoch": "2025-12-08T17:23:11.247072",
        "meta_mean_motion": 14.81333009,
        "meta_eccentricity": 0.00332079,
        "meta_inclination": 86.3416,
        "meta_ra_of_asc_node": 68.6723,
        "meta_arg_of_pericenter": 307.6397,
        "meta_mean_anomaly": 52.1812,
        "meta_ephemeris_type": 0,
        "meta_classification_type": "U",
        "meta_norad_cat_id": 34091,
        "meta_element_set_no": 999,
        "meta_rev_at_epoch": 87807,
        "meta_bstar": 0.0065278456,
        "meta_mean_motion_dot": 0.00051785,
        "meta_mean_motion_ddot": 0,
        "tle_line1": "1 34091U 97051DA  25342.72443573  .00051785  00000+0  65278-2 0  9995",
        "tle_line2": "2 34091  86.3416  68.6723 0033207 307.6397  52.1812 14.81333009878070"
      },
      "geometry": {
        "type": "Point",
        "coordinates": [
          61.10491405814175,
          -63.25638809520642
        ]
      }
    },
    {
      "type": "Feature",
      "properties": {
        "norad_id": 34097,
        "name": "IRIDIUM 33 DEB",
        "group": "iridium-33-debris",
        "lat": 41.08539402222371,
        "lon": 6.238974184963572,
        "alt_km": 720.1425280107369,
        "timestamp": "2025-12-09T07:41:33.595581+00:00",
        "meta_object_name": "IRIDIUM 33 DEB",
        "meta_object_id": "1997-051DG",
        "meta_epoch": "2025-12-08T13:05:32.171136",
        "meta_mean_motion": 14.34726574,
        "meta_eccentricity": 0.008307,
        "meta_inclination": 86.1999,
        "meta_ra_of_asc_node": 3.2587,
        "meta_arg_of_pericenter": 15.8457,
        "meta_mean_anomaly": 344.5308,
        "meta_ephemeris_type": 0,
        "meta_classification_type": "U",
        "meta_norad_cat_id": 34097,
        "meta_element_set_no": 999,
        "meta_rev_at_epoch": 87059,
        "meta_bstar": 0.002047,
        "meta_mean_motion_dot": 6.046e-05,
        "meta_mean_motion_ddot": 0,
        "tle_line1": "1 34097U 97051DG  25342.54551124  .00006046  00000+0  20470-2 0  9998",
        "tle_line2": "2 34097  86.1999   3.2587 0083070  15.8457 344.5308 14.34726574870599"
      },
      "geometry": {
        "type": "Point",
        "coordinates": [
          6.238974184963572,
          41.08539402222371
        ]
      }
    },
    {
      "type": "Feature",
      "properties": {
        "norad_id": 34145,
        "name": "IRIDIUM 33 DEB",
        "group": "iridium-33-debris",
        "lat": -38.329156567003494,
        "lon": 157.05203858152026,
        "alt_km": 773.3945842054454,
        "timestamp": "2025-12-09T07:41:33.595594+00:00",
        "meta_object_name": "IRIDIUM 33 DEB",
        "meta_object_id": "1997-051DY",
        "meta_epoch": "2025-12-07T23:03:04.751424",
        "meta_mean_motion": 14.42235871,
        "meta_eccentricity": 0.0055559,
        "meta_inclination": 86.2113,
        "meta_ra_of_asc_node": 334.6546,
        "meta_arg_of_pericenter": 109.0134,
        "meta_mean_anomaly": 251.7097,
        "meta_ephemeris_type": 0,
        "meta_classification_type": "U",
        "meta_norad_cat_id": 34145,
        "meta_element_set_no": 999,
        "meta_rev_at_epoch": 87569,
        "meta_bstar": 0.0013920574,
        "meta_mean_motion_dot": 4.693e-05,
        "meta_mean_motion_ddot": 0,
        "tle_line1": "1 34145U 97051DY  25341.96047166  .00004693  00000+0  13921-2 0  9992",
        "tle_line2": "2 34145  86.2113 334.6546 0055559 109.0134 251.7097 14.42235871875691"
      },
      "geometry": {
        "type": "Point",
        "coordinates": [
          157.05203858152026,
          -38.329156567003494
        ]
      }
    },
    {
      "type": "Feature",
      "properties": {
        "norad_id": 34146,
        "name": "IRIDIUM 33 DEB",
        "group": "iridium-33-debris",
        "lat": 47.75687897210658,
        "lon": 167.20613341640566,
        "alt_km": 728.3741930947617,
        "timestamp": "2025-12-09T07:41:33.595604+00:00",
        "meta_object_name": "IRIDIUM 33 DEB",
        "meta_object_id": "1997-051DZ",
        "meta_epoch": "2025-12-08T11:45:05.493024",
        "meta_mean_motion": 14.49003578,
        "meta_eccentricity": 0.00251689,
        "meta_inclination": 86.2833,
        "meta_ra_of_asc_node": 351.6777,
        "meta_arg_of_pericenter": 236.7586,
        "meta_mean_anomaly": 244.1016,
        "meta_ephemeris_type": 0,
        "meta_classification_type": "U",
        "meta_norad_cat_id": 34146,
        "meta_element_set_no": 999,
        "meta_rev_at_epoch": 88045,
        "meta_bstar": 0.0014201517,
        "meta_mean_motion_dot": 5.425e-05,
        "meta_mean_motion_ddot": 0,
        "tle_line1": "1 34146U 97051DZ  25342.48964691  .00005425  00000+0  14202-2 0  9999",
        "tle_line2": "2 34146  86.2833 351.6777 0025168 236.7586 244.1016 14.49003578880459"
      },
      "geometry": {
        "type": "Point",
        "coordinates": [
          167.20613341640566,
          47.75687897210658
        ]
      }
    },
    {
      "type": "Feature",
      "properties": {
        "norad_id": 34159,
        "name": "IRIDIUM 33 DEB",
        "group": "iridium-33-debris",
        "lat": -23.142852952697957,
        "lon": 48.1368087773701,
        "alt_km": 754.1341086875673,
        "timestamp": "2025-12-09T07:41:33.595615+00:00",
        "meta_object_name": "IRIDIUM 33 DEB",
        "meta_object_id": "1997-051EN",
        "meta_epoch": "2025-12-08T15:06:18.156384",
        "meta_mean_motion": 14.38478952,
        "meta_eccentricity": 0.0026048,
        "meta_inclination": 86.3515,
        "meta_ra_of_asc_node": 49.9941,
        "meta_arg_of_pericenter": 302.3389,
        "meta_mean_anomaly": 57.5287,
        "meta_ephemeris_type": 0,
        "meta_classification_type": "U",
        "meta_norad_cat_id": 34159,
        "meta_element_set_no": 999,
        "meta_rev_at_epoch": 87900,
        "meta_bstar": 0.00073352,
        "meta_mean_motion_dot": 2.267e-05,
        "meta_mean_motion_ddot": 0,
        "tle_line1": "1 34159U 97051EN  25342.62937681  .00002267  00000+0  73352-3 0  9991",
        "tle_line2": "2 34159  86.3515  49.9941 0026048 302.3389  57.5287 14.38478952879005"
      },
      "geometry": {
        "type": "Point",
        "coordinates": [
          48.1368087773701,
          -23.142852952697957
        ]
      }
    }
  ]
}